GLOBALSTAR M075         
1 37192U 10054E   25158.92342883 -.00000073  00000+0  17280-3 0  9993
2 37192  51.9926 209.7436 0000251 137.0367  34.2772 12.62265672675206
GLOBALSTAR M073         
1 37193U 10054F   25158.68603497 -.00000102  00000+0  12387-4 0  9995
2 37193  52.0043 124.2762 0000383   8.2659 163.3648 12.62272066676630
GLOBALSTAR M083         
1 37739U 11033A   25158.91599656 -.00000107  00000+0 -20569-4 0  9993
2 37739  51.9866  72.3206 0000468  66.4419  10.2607 12.62263782645688
GLOBALSTAR M088         
1 37740U 11033B   25158.90475894 -.00000090  00000+0  76702-4 0  9991
2 37740  52.0063 337.8932 0000923 103.5516  42.6724 12.62265352641223
GLOBALSTAR M091         
1 37741U 11033C   25158.84267012 -.00000096  00000+0  44999-4 0  9995
2 37741  52.0009 301.5822 0000838 132.8697  31.1939 12.62268478642000
GLOBALSTAR M085         
1 37742U 11033D   25158.75064764 -.00000089  00000+0  83715-4 0  9996
2 37742  51.9865 252.9090 0000620 154.9745  11.1508 12.62269059642504
GLOBALSTAR M081         
1 37743U 11033E   25158.69453495 -.00000096  00000+0  44809-4 0  9992
2 37743  51.9957 255.8626 0000431 155.8325 354.0146 12.62266264642645
GLOBALSTAR M089         
1 37744U 11033F   25158.89701108 -.00000072  00000+0  17938-3 0  9998
2 37744  51.9910 209.4742 0000215  75.2050  96.5801 12.62264548643515
